start=new Date('2022-05-12T00:00:00.000Z').valueOf();
sats=[{"REV_AT_EPOCH":"130","RCS_SIZE":"LARGE","RA_OF_ASC_NODE":"239.3475","PERIAPSIS":"412.876","MEAN_ELEMENT_THEORY":"SGP4","CLASSIFICATION_TYPE":"U","NORAD_CAT_ID":"52112","MEAN_MOTION":"15.51043987","MEAN_ANOMALY":"223.1737","MEAN_MOTION_DDOT":"0.0000000000000","TIME_SYSTEM":"UTC","EPHEMERIS_TYPE":"0","DECAY_DATE":null,"ECCENTRICITY":"0.00011820","REF_FRAME":"TEME","OBJECT_TYPE":"PAYLOAD","PERIOD":"92.841","TLE_LINE2":"2 52112  53.2172 239.3475 0001182  75.9722 223.1737 15.51043987  1302","CENTER_NAME":"EARTH","OBJECT_ID":"2022-029AA","MEAN_MOTION_DOT":"-0.00724203","GP_ID":"203312700","APOAPSIS":"414.481","OBJECT_NAME":"STARLINK-3734","ELEMENT_SET_NO":"999","TLE_LINE1":"1 52112U 22029AA  22131.91667824 -.00724203  00000-0 -13225-1 0  9992","INCLINATION":"53.2172","SITE":"AFETR","BSTAR":"-0.01322500000000","ARG_OF_PERICENTER":"75.9722","EPOCH":"2022-05-11T22:00:00.999936","COUNTRY_CODE":"US","SEMIMAJOR_AXIS":"6791.814","LAUNCH_DATE":"2022-03-19","FILE":"3441154"},{"OBJECT_NAME":"STARLINK-3736","GP_ID":"203312951","APOAPSIS":"414.479","MEAN_MOTION_DOT":"-0.00724178","CENTER_NAME":"EARTH","TLE_LINE2":"2 52113  53.2172 239.3953 0001245  62.4167 240.3654 15.51059423  1309","OBJECT_ID":"2022-029AB","OBJECT_TYPE":"PAYLOAD","PERIOD":"92.840","SEMIMAJOR_AXIS":"6791.769","COUNTRY_CODE":"US","LAUNCH_DATE":"2022-03-19","FILE":"3441154","ARG_OF_PERICENTER":"62.4167","EPOCH":"2022-05-11T22:00:00.999936","BSTAR":"-0.01321700000000","TLE_LINE1":"1 52113U 22029AB  22131.91667824 -.00724178  00000-0 -13217-1 0  9995","INCLINATION":"53.2172","SITE":"AFETR","ELEMENT_SET_NO":"999","MEAN_ANOMALY":"240.3654","MEAN_MOTION":"15.51059423","CLASSIFICATION_TYPE":"U","NORAD_CAT_ID":"52113","MEAN_ELEMENT_THEORY":"SGP4","PERIAPSIS":"412.788","RCS_SIZE":"LARGE","REV_AT_EPOCH":"130","RA_OF_ASC_NODE":"239.3953","ECCENTRICITY":"0.00012450","REF_FRAME":"TEME","DECAY_DATE":null,"EPHEMERIS_TYPE":"0","MEAN_MOTION_DDOT":"0.0000000000000","TIME_SYSTEM":"UTC"},{"NORAD_CAT_ID":"52114","CLASSIFICATION_TYPE":"U","MEAN_ANOMALY":"231.9442","MEAN_MOTION":"15.51045000","REV_AT_EPOCH":"130","RCS_SIZE":"LARGE","RA_OF_ASC_NODE":"239.3589","MEAN_ELEMENT_THEORY":"SGP4","PERIAPSIS":"412.854","EPHEMERIS_TYPE":"0","DECAY_DATE":null,"ECCENTRICITY":"0.00012100","REF_FRAME":"TEME","MEAN_MOTION_DDOT":"0.0000000000000","TIME_SYSTEM":"UTC","GP_ID":"203312786","APOAPSIS":"414.498","OBJECT_NAME":"STARLINK-3737","OBJECT_TYPE":"PAYLOAD","PERIOD":"92.841","CENTER_NAME":"EARTH","TLE_LINE2":"2 52114  53.2172 239.3589 0001210  68.3925 231.9442 15.51045000  1301","OBJECT_ID":"2022-029AC","MEAN_MOTION_DOT":"-0.00724181","BSTAR":"-0.01322400000000","ARG_OF_PERICENTER":"68.3925","EPOCH":"2022-05-11T22:00:00.999936","COUNTRY_CODE":"US","SEMIMAJOR_AXIS":"6791.811","LAUNCH_DATE":"2022-03-19","FILE":"3441154","ELEMENT_SET_NO":"999","INCLINATION":"53.2172","TLE_LINE1":"1 52114U 22029AC  22131.91667824 -.00724181  00000-0 -13224-1 0  9998","SITE":"AFETR"},{"TIME_SYSTEM":"UTC","MEAN_MOTION_DDOT":"0.0000000000000","DECAY_DATE":null,"EPHEMERIS_TYPE":"0","REF_FRAME":"TEME","ECCENTRICITY":"0.00012300","RA_OF_ASC_NODE":"239.4196","RCS_SIZE":"LARGE","REV_AT_EPOCH":"130","PERIAPSIS":"412.770","MEAN_ELEMENT_THEORY":"SGP4","MEAN_ANOMALY":"238.7079","MEAN_MOTION":"15.51068943","NORAD_CAT_ID":"52115","CLASSIFICATION_TYPE":"U","ELEMENT_SET_NO":"999","SITE":"AFETR","TLE_LINE1":"1 52115U 22029AD  22131.91667824 -.00724100  00000-0 -13211-1 0  9996","INCLINATION":"53.2172","ARG_OF_PERICENTER":"65.7044","EPOCH":"2022-05-11T22:00:00.999936","BSTAR":"-0.01321100000000","FILE":"3441154","LAUNCH_DATE":"2022-03-19","SEMIMAJOR_AXIS":"6791.741","COUNTRY_CODE":"US","PERIOD":"92.839","OBJECT_TYPE":"PAYLOAD","MEAN_MOTION_DOT":"-0.00724100","TLE_LINE2":"2 52115  53.2172 239.4196 0001230  65.7044 238.7079 15.51068943  1304","OBJECT_ID":"2022-029AD","CENTER_NAME":"EARTH","APOAPSIS":"414.441","GP_ID":"203312866","OBJECT_NAME":"STARLINK-3685"},{"MEAN_MOTION":"15.51054671","MEAN_ANOMALY":"241.6128","CLASSIFICATION_TYPE":"U","NORAD_CAT_ID":"52116","RCS_SIZE":"LARGE","REV_AT_EPOCH":"130","RA_OF_ASC_NODE":"239.3833","MEAN_ELEMENT_THEORY":"SGP4","PERIAPSIS":"412.778","DECAY_DATE":null,"EPHEMERIS_TYPE":"0","ECCENTRICITY":"0.00012800","REF_FRAME":"TEME","MEAN_MOTION_DDOT":"0.0000000000000","TIME_SYSTEM":"UTC","GP_ID":"203312359","APOAPSIS":"414.517","OBJECT_NAME":"STARLINK-3735","OBJECT_TYPE":"PAYLOAD","PERIOD":"92.840","MEAN_MOTION_DOT":"-0.00724323","TLE_LINE2":"2 52116  53.2172 239.3833 0001280  60.3543 241.6128 15.51054671  1303","CENTER_NAME":"EARTH","OBJECT_ID":"2022-029AE","ARG_OF_PERICENTER":"60.3543","EPOCH":"2022-05-11T22:00:00.999936","BSTAR":"-0.01322200000000","SEMIMAJOR_AXIS":"6791.783","COUNTRY_CODE":"US","LAUNCH_DATE":"2022-03-19","FILE":"3441154","ELEMENT_SET_NO":"999","TLE_LINE1":"1 52116U 22029AE  22131.91667824 -.00724323  00000-0 -13222-1 0  9996","INCLINATION":"53.2172","SITE":"AFETR"},{"PERIAPSIS":"412.702","MEAN_ELEMENT_THEORY":"SGP4","RA_OF_ASC_NODE":"239.4440","RCS_SIZE":"LARGE","REV_AT_EPOCH":"130","MEAN_ANOMALY":"246.8463","MEAN_MOTION":"15.51078573","NORAD_CAT_ID":"52117","CLASSIFICATION_TYPE":"U","TIME_SYSTEM":"UTC","MEAN_MOTION_DDOT":"0.0000000000000","REF_FRAME":"TEME","ECCENTRICITY":"0.00012900","DECAY_DATE":null,"EPHEMERIS_TYPE":"0","MEAN_MOTION_DOT":"-0.00724138","TLE_LINE2":"2 52117  53.2173 239.4440 0001290  59.1958 246.8463 15.51078573  1303","CENTER_NAME":"EARTH","OBJECT_ID":"2022-029AF","PERIOD":"92.839","OBJECT_TYPE":"PAYLOAD","OBJECT_NAME":"STARLINK-3738","APOAPSIS":"414.454","GP_ID":"203312611","SITE":"AFETR","INCLINATION":"53.2173","TLE_LINE1":"1 52117U 22029AF  22131.91667824 -.00724138  00000-0 -13207-1 0  9994","ELEMENT_SET_NO":"999","LAUNCH_DATE":"2022-03-19","FILE":"3441154","SEMIMAJOR_AXIS":"6791.713","COUNTRY_CODE":"US","ARG_OF_PERICENTER":"59.1958","EPOCH":"2022-05-11T22:00:00.999936","BSTAR":"-0.01320700000000"},{"EPOCH":"2022-05-11T22:00:00.999936","ARG_OF_PERICENTER":"65.6877","BSTAR":"-0.01322800000000","SEMIMAJOR_AXIS":"6791.754","COUNTRY_CODE":"US","FILE":"3441154","LAUNCH_DATE":"2022-03-19","ELEMENT_SET_NO":"999","INCLINATION":"53.2172","TLE_LINE1":"1 52118U 22029AG  22131.91667824 -.00724858  00000-0 -13228-1 0  9997","SITE":"AFETR","GP_ID":"203312445","APOAPSIS":"414.453","OBJECT_NAME":"STARLINK-3743","OBJECT_TYPE":"PAYLOAD","PERIOD":"92.839","MEAN_MOTION_DOT":"-0.00724858","TLE_LINE2":"2 52118  53.2172 239.4077 0001229  65.6877 237.9096 15.51064565  1302","CENTER_NAME":"EARTH","OBJECT_ID":"2022-029AG","DECAY_DATE":null,"EPHEMERIS_TYPE":"0","ECCENTRICITY":"0.00012290","REF_FRAME":"TEME","MEAN_MOTION_DDOT":"0.0000000000000","TIME_SYSTEM":"UTC","MEAN_MOTION":"15.51064565","MEAN_ANOMALY":"237.9096","NORAD_CAT_ID":"52118","CLASSIFICATION_TYPE":"U","RCS_SIZE":"LARGE","REV_AT_EPOCH":"130","RA_OF_ASC_NODE":"239.4077","PERIAPSIS":"412.784","MEAN_ELEMENT_THEORY":"SGP4"},{"ELEMENT_SET_NO":"999","INCLINATION":"53.2173","TLE_LINE1":"1 52119U 22029AH  22131.91667824 -.00724126  00000-0 -13202-1 0  9998","SITE":"AFETR","EPOCH":"2022-05-11T22:00:00.999936","ARG_OF_PERICENTER":"52.5406","BSTAR":"-0.01320200000000","SEMIMAJOR_AXIS":"6791.685","COUNTRY_CODE":"US","FILE":"3441154","LAUNCH_DATE":"2022-03-19","OBJECT_TYPE":"PAYLOAD","PERIOD":"92.838","MEAN_MOTION_DOT":"-0.00724126","OBJECT_ID":"2022-029AH","TLE_LINE2":"2 52119  53.2173 239.4682 0001353  52.5406 255.1311 15.51088192  1301","CENTER_NAME":"EARTH","GP_ID":"203312525","APOAPSIS":"414.469","OBJECT_NAME":"STARLINK-3558","MEAN_MOTION_DDOT":"0.0000000000000","TIME_SYSTEM":"UTC","DECAY_DATE":null,"EPHEMERIS_TYPE":"0","ECCENTRICITY":"0.00013530","REF_FRAME":"TEME","RCS_SIZE":"LARGE","REV_AT_EPOCH":"130","RA_OF_ASC_NODE":"239.4682","MEAN_ELEMENT_THEORY":"SGP4","PERIAPSIS":"412.631","MEAN_MOTION":"15.51088192","MEAN_ANOMALY":"255.1311","NORAD_CAT_ID":"52119","CLASSIFICATION_TYPE":"U"},{"OBJECT_NAME":"STARLINK-3534","GP_ID":"203312701","APOAPSIS":"414.449","MEAN_MOTION_DOT":"-0.00724172","CENTER_NAME":"EARTH","TLE_LINE2":"2 52120  53.2172 239.4320 0001262  60.1170 245.1102 15.51073819  1300","OBJECT_ID":"2022-029AJ","OBJECT_TYPE":"PAYLOAD","PERIOD":"92.839","SEMIMAJOR_AXIS":"6791.727","COUNTRY_CODE":"US","LAUNCH_DATE":"2022-03-19","FILE":"3441154","ARG_OF_PERICENTER":"60.1170","EPOCH":"2022-05-11T22:00:00.999936","BSTAR":"-0.01321000000000","TLE_LINE1":"1 52120U 22029AJ  22131.91667824 -.00724172  00000-0 -13210-1 0  9990","INCLINATION":"53.2172","SITE":"AFETR","ELEMENT_SET_NO":"999","MEAN_ANOMALY":"245.1102","MEAN_MOTION":"15.51073819","CLASSIFICATION_TYPE":"U","NORAD_CAT_ID":"52120","PERIAPSIS":"412.735","MEAN_ELEMENT_THEORY":"SGP4","RCS_SIZE":"LARGE","REV_AT_EPOCH":"130","RA_OF_ASC_NODE":"239.4320","ECCENTRICITY":"0.00012620","REF_FRAME":"TEME","DECAY_DATE":null,"EPHEMERIS_TYPE":"0","MEAN_MOTION_DDOT":"0.0000000000000","TIME_SYSTEM":"UTC"},{"OBJECT_NAME":"STARLINK-3678","GP_ID":"203286936","APOAPSIS":"350.901","MEAN_MOTION_DOT":"0.00011618","TLE_LINE2":"2 52121  53.2144 238.2104 0001764  27.4490 138.1454 15.73215969  9717","OBJECT_ID":"2022-029AK","CENTER_NAME":"EARTH","OBJECT_TYPE":"PAYLOAD","PERIOD":"91.532","SEMIMAJOR_AXIS":"6727.850","COUNTRY_CODE":"US","LAUNCH_DATE":"2022-03-19","FILE":"3441093","EPOCH":"2022-05-11T22:00:00.999936","ARG_OF_PERICENTER":"27.4490","BSTAR":"0.00008702700000","INCLINATION":"53.2144","TLE_LINE1":"1 52121U 22029AK  22131.91667824  .00011618  00000-0  87027-4 0  9993","SITE":"AFETR","ELEMENT_SET_NO":"999","MEAN_ANOMALY":"138.1454","MEAN_MOTION":"15.73215969","CLASSIFICATION_TYPE":"U","NORAD_CAT_ID":"52121","MEAN_ELEMENT_THEORY":"SGP4","PERIAPSIS":"348.528","RCS_SIZE":"LARGE","REV_AT_EPOCH":"971","RA_OF_ASC_NODE":"238.2104","ECCENTRICITY":"0.00017640","REF_FRAME":"TEME","DECAY_DATE":null,"EPHEMERIS_TYPE":"0","MEAN_MOTION_DDOT":"0.0000000000000","TIME_SYSTEM":"UTC"}];
